NORAD_CAT_ID,OBJECT_NAME,OBJECT_TYPE,EPOCH,MEAN_MOTION,ECCENTRICITY,INCLINATION,RA_OF_ASC_NODE,ARG_OF_PERICENTER,MEAN_ANOMALY,BSTAR,MEAN_MOTION_DOT,MEAN_MOTION_DDOT,TLE_LINE0,TLE_LINE1,TLE_LINE2,SEMIMAJOR_AXIS,PERIOD,APOGEE,PERIGEE,DECAYED
53038.0,STARLINK-4156,PAYLOAD,2022-09-15 06:00:00,15.73221338,0.0003193,53.2153,34.6114,10.8569,270.9226,0.00019977,0.00027537,0.0,0 STARLINK-4156,1 53038U 22076BE  22258.25001157  .00027537  00000-0  19977-3 0  9996,2 53038  53.2153  34.6114 0003193  10.8569 270.9226 15.73221338 11458,6727.834,91.532,351.848,347.551,0.0
53038.0,STARLINK-4156,PAYLOAD,2022-09-15 14:00:01,15.73253457,0.0003424,53.2155,32.9631,12.9295,357.8229,-0.00054072,-0.00076029,0.0,0 STARLINK-4156,1 53038U 22076BE  22258.58334491 -.00076029  00000-0 -54072-3 0  9999,2 53038  53.2155  32.9631 0003424  12.9295 357.8229 15.73253457  1309,6727.743,91.53,351.911,347.30400000000014,0.0
53038.0,STARLINK-4156,PAYLOAD,2022-09-15 22:00:00,15.73222625,0.0003602,53.2152,31.314,9.5689,90.1398,-0.00031642,-0.00044855,0.0,0 STARLINK-4156,1 53038U 22076BE  22258.91667824 -.00044855  00000-0 -31642-3 0  9995,2 53038  53.2152  31.3140 0003602   9.5689  90.1398 15.73222625  1308,6727.831,91.532,352.119,347.272,0.0
53038.0,STARLINK-4156,PAYLOAD,2022-09-16 02:00:01,15.73187957,0.0003432,53.2154,30.4882,9.432,314.744,-0.00022686,-0.00032334,0.0,0 STARLINK-4156,1 53038U 22076BE  22259.08334491 -.00032334  00000-0 -22686-3 0  9992,2 53038  53.2154  30.4882 0003432   9.4320 314.7440 15.73187957 11587,6727.93,91.534,352.10400000000016,347.485,0.0
53038.0,STARLINK-4156,PAYLOAD,2022-09-16 14:00:01,15.73193754,0.0003577,53.2151,28.015,9.129,268.4079,-0.0010181,-0.00141163,0.0,0 STARLINK-4156,1 53038U 22076BE  22259.58334491 -.00141163  00000-0 -10181-2 0  9994,2 53038  53.2151  28.0150 0003577   9.1290 268.4079 15.73193754  1302,6727.913000000001,91.534,352.185,347.371,0.0
53038.0,STARLINK-4156,PAYLOAD,2022-09-16 16:00:00,15.73010231,0.0003327,53.2172,27.5787,11.4023,18.3191,0.0021641,0.00312138,0.0,0 STARLINK-4156,1 53038U 22076BE  22259.66667824  .00312138  00000-0  21641-2 0  9995,2 53038  53.2172  27.5787 0003327  11.4023  18.3191 15.73010231 11685,6728.436,91.544,352.54,348.06300000000016,0.0
53038.0,STARLINK-4156,PAYLOAD,2022-09-16 22:00:00,15.73205491,0.0003288999999999,53.2171,26.3385,8.9514,357.3733,-8.1837e-06,-1.772e-05,0.0,0 STARLINK-4156,1 53038U 22076BE  22259.91667824 -.00001772  00000-0 -81837-5 0  9990,2 53038  53.2171  26.3385 0003289   8.9514 357.3733 15.73205491  1308,6727.88,91.533,351.957,347.532,0.0
53038.0,STARLINK-4156,PAYLOAD,2022-09-17 08:00:01,15.73180927,0.0003538,53.2153,24.3018,10.5993,197.0051,0.00034145,0.00047543,0.0,0 STARLINK-4156,1 53038U 22076BE  22260.33334491  .00047543  00000-0  34145-3 0  9991,2 53038  53.2153  24.3018 0003538  10.5993 197.0051 15.73180927 11787,6727.95,91.534,352.195,347.434,0.0
53038.0,STARLINK-4156,PAYLOAD,2022-09-17 14:00:01,15.73229719,0.0003787,53.2152,23.0663,8.6073,175.6842,-0.00053003,-0.00074484,0.0,0 STARLINK-4156,1 53038U 22076BE  22260.58334491 -.00074484  00000-0 -53003-3 0  9998,2 53038  53.2152  23.0663 0003787   8.6073 175.6842 15.73229719  1301,6727.81,91.531,352.223,347.12800000000016,0.0
53038.0,STARLINK-4156,PAYLOAD,2022-09-17 22:00:00,15.73191993,0.0003907,53.215,21.4167,5.3213,267.9048,0.00021891,0.0003021,0.0,0 STARLINK-4156,1 53038U 22076BE  22260.91667824  .00030210  00000-0  21891-3 0  9991,2 53038  53.2150  21.4167 0003907   5.3213 267.9048 15.73191993 11872,6727.918000000002,91.534,352.412,347.154,0.0
53038.0,STARLINK-4156,PAYLOAD,2022-09-18 06:00:00,15.73190303,0.0003677,53.2151,19.7656,5.1076,357.0457,-3.772e-05,-5.914e-05,0.0,0 STARLINK-4156,1 53038U 22076BE  22261.25001157 -.00005914  00000-0 -37720-4 0  9994,2 53038  53.2151  19.7656 0003677   5.1076 357.0457 15.73190303 11931,6727.9230000000025,91.534,352.26199999999994,347.314,0.0
53038.0,STARLINK-4156,PAYLOAD,2022-09-18 14:00:01,15.73216248,0.0003969,53.2148,18.1179,3.6671,87.4775,-6.0903e-05,-9.173e-05,0.0,0 STARLINK-4156,1 53038U 22076BE  22261.58335648 -.00009173  00000-0 -60903-4 0  9995,2 53038  53.2148  18.1179 0003969   3.6671  87.4775 15.73216248 11987,6727.849,91.532,352.384,347.0440000000001,0.0
53038.0,STARLINK-4156,PAYLOAD,2022-09-18 22:00:00,15.73210014,0.0004059999999999,53.2146,16.4682,1.9666,178.0592,-1.2243e-05,-2.344e-05,0.0,0 STARLINK-4156,1 53038U 22076BE  22261.91667824 -.00002344  00000-0 -12243-4 0  9993,2 53038  53.2146  16.4682 0004060   1.9666 178.0592 15.73210014  1307,6727.8669999999975,91.533,352.463,347.0,0.0
53038.0,STARLINK-4156,PAYLOAD,2022-09-19 14:00:01,15.73224595,0.0004176,53.2151,13.169,5.4167,352.4937,-0.00025335,-0.00036085,0.0,0 STARLINK-4156,1 53038U 22076BE  22262.58334491 -.00036085  00000-0 -25335-3 0  9992,2 53038  53.2151  13.1690 0004176   5.4167 352.4937 15.73224595  1309,6727.825,91.532,352.5,346.881,0.0
53038.0,STARLINK-4156,PAYLOAD,2022-09-19 22:00:00,15.73209868,0.0004246999999999,53.2149,11.5191,3.1011,83.7523,-0.00020017,-0.00028649,0.0,0 STARLINK-4156,1 53038U 22076BE  22262.91667824 -.00028649  00000-0 -20017-3 0  9997,2 53038  53.2149  11.5191 0004247   3.1011  83.7523 15.73209868 12196,6727.8669999999975,91.533,352.589,346.875,0.0
53038.0,STARLINK-4156,PAYLOAD,2022-09-20 14:00:01,15.73188244,0.0004362,53.2147,8.2207,1.8281,262.8692,0.00027725,0.00038463,0.0,0 STARLINK-4156,1 53038U 22076BE  22263.58334491  .00038463  00000-0  27725-3 0  9998,2 53038  53.2147   8.2207 0004362   1.8281 262.8692 15.73188244 12299,6727.929,91.534,352.728,346.8590000000001,0.0
53038.0,STARLINK-4156,PAYLOAD,2022-09-20 22:00:01,15.73255077,0.0004287,53.2145,6.5704,359.2753,354.4142,-0.00074086,-0.00103637,0.0,0 STARLINK-4156,1 53038U 22076BE  22263.91668981 -.00103637  00000-0 -74086-3 0  9999,2 53038  53.2145   6.5704 0004287 359.2753 354.4142 15.73255077  1307,6727.738,91.53,352.487,346.719,0.0
53038.0,STARLINK-4156,PAYLOAD,2022-09-21 08:00:01,15.73155266,0.0004041,53.2151,4.5075,358.0191,196.7643,0.00020928,0.00028804,0.0,0 STARLINK-4156,1 53038U 22076BE  22264.33334491  .00028804  00000-0  20928-3 0  9998,2 53038  53.2151   4.5075 0004041 358.0191 196.7643 15.73155266 12410,6728.023,91.536,352.607,347.1690000000001,0.0
53038.0,STARLINK-4156,PAYLOAD,2022-09-21 22:00:00,15.73249891,0.0004311,53.2149,1.6217,357.2992,263.0678,-0.00065633,-0.00091989,0.0,0 STARLINK-4156,1 53038U 22076BE  22264.91667824 -.00091989  00000-0 -65633-3 0  9999,2 53038  53.2149   1.6217 0004311 357.2992 263.0678 15.73249891 12507,6727.753000000002,91.53,352.51800000000014,346.718,0.0
53038.0,STARLINK-4156,PAYLOAD,2022-09-22 06:00:00,15.7322934,0.0004253999999999,53.2151,359.9709,3.1157,346.2281,7.1538e-06,3.8e-06,0.0,0 STARLINK-4156,1 53038U 22076BE  22265.25001157  .00000380  00000-0  71538-5 0  9994,2 53038  53.2151 359.9709 0004254   3.1157 346.2281 15.73229340 12568,6727.812,91.531,352.539,346.815,0.0
53038.0,STARLINK-4156,PAYLOAD,2022-09-22 14:00:01,15.73226937,0.0004533,53.2147,358.3236,4.6232,73.6733,-4.8088e-05,-7.381e-05,0.0,0 STARLINK-4156,1 53038U 22076BE  22265.58334491 -.00007381  00000-0 -48088-4 0  9993,2 53038  53.2147 358.3236 0004533   4.6232  73.6733 15.73226937  1303,6727.818,91.532,352.733,346.634,0.0
53038.0,STARLINK-4156,PAYLOAD,2022-09-22 22:00:00,15.73228392,0.0004412,53.2145,356.673,2.4759,164.7865,-0.0003295,-0.00046697,0.0,0 STARLINK-4156,1 53038U 22076BE  22265.91667824 -.00046697  00000-0 -32950-3 0  9992,2 53038  53.2145 356.6730 0004412   2.4759 164.7865 15.73228392  1302,6727.814,91.532,352.648,346.711,0.0
53038.0,STARLINK-4156,PAYLOAD,2022-09-23 06:00:00,15.73204029,0.0004176999999999,53.2174,354.9942,1.0105,255.0671,1.2206e-05,1.089e-05,0.0,0 STARLINK-4156,1 53038U 22076BE  22266.25001157  .00001089  00000-0  12206-4 0  9998,2 53038  53.2174 354.9942 0004177   1.0105 255.0671 15.73204029 12715,6727.884,91.533,352.559,346.93800000000016,0.0
53038.0,STARLINK-4156,PAYLOAD,2022-09-23 14:00:01,15.73183848,0.0004578,53.215,353.3749,1.4375,343.6947,0.00029261,0.00040633,0.0,0 STARLINK-4156,1 53038U 22076BE  22266.58334491  .00040633  00000-0  29261-3 0  9990,2 53038  53.2150 353.3749 0004578   1.4375 343.6947 15.73183848  1303,6727.941,91.534,352.886,346.726,0.0
53038.0,STARLINK-4156,PAYLOAD,2022-09-23 22:00:00,15.73240692,0.0004502,53.2148,351.7243,359.6018,74.4676,-0.00040853,-0.00057705,0.0,0 STARLINK-4156,1 53038U 22076BE  22266.91667824 -.00057705  00000-0 -40853-3 0  9996,2 53038  53.2148 351.7243 0004502 359.6018  74.4676 15.73240692  1309,6727.779,91.531,352.673,346.615,0.0
53038.0,STARLINK-4156,PAYLOAD,2022-09-24 14:00:01,15.73219444,0.0004551999999999,53.2145,348.4266,359.1603,252.8985,-0.00013333,-0.00019322,0.0,0 STARLINK-4156,1 53038U 22076BE  22267.58335648 -.00019322  00000-0 -13333-3 0  9992,2 53038  53.2145 348.4266 0004552 359.1603 252.8985 15.73219444  1300,6727.84,91.532,352.767,346.642,0.0
53038.0,STARLINK-4156,PAYLOAD,2022-09-24 22:00:00,15.73201615,0.0004352,53.2141,346.7757,356.1407,344.8008,-0.00012603,-0.00018286,0.0,0 STARLINK-4156,1 53038U 22076BE  22267.91667824 -.00018286  00000-0 -12603-3 0  9990,2 53038  53.2141 346.7757 0004352 356.1407 344.8008 15.73201615  1308,6727.891,91.533,352.684,346.82800000000015,0.0
53038.0,STARLINK-4156,PAYLOAD,2022-09-25 14:00:01,15.73212082,0.0004512999999999,53.2151,343.4744,355.3478,163.4463,5.177800000000001e-05,6.655e-05,0.0,0 STARLINK-4156,1 53038U 22076BE  22268.58334491  .00006655  00000-0  51778-4 0  9997,2 53038  53.2151 343.4744 0004513 355.3478 163.4463 15.73212082  1307,6727.861,91.532,352.76199999999994,346.689,0.0
53038.0,STARLINK-4156,PAYLOAD,2022-09-25 22:00:01,15.73211607,0.0004331,53.2143,341.8272,352.3862,255.3789,-0.00051922,-0.00072946,0.0,0 STARLINK-4156,1 53038U 22076BE  22268.91668981 -.00072946  00000-0 -51922-3 0  9996,2 53038  53.2143 341.8272 0004331 352.3862 255.3789 15.73211607  1302,6727.861999999999,91.533,352.641,346.81300000000016,0.0
